[{"OBJECT_NAME":"PROTOMETHEE","OBJECT_ID":"2023-174BT","EPOCH":"2026-03-09T23:28:08.029344","MEAN_MOTION":15.30202663,"ECCENTRICITY":0.00088339,"INCLINATION":97.3826,"RA_OF_ASC_NODE":147.9552,"ARG_OF_PERICENTER":148.5993,"MEAN_ANOMALY":211.5776,"EPHEMERIS_TYPE":0,"CLASSIFICATION_TYPE":"U","NORAD_CAT_ID":58321,"ELEMENT_SET_NO":999,"REV_AT_EPOCH":12979,"BSTAR":0.00015715731,"MEAN_MOTION_DOT":4.52e-5,"MEAN_MOTION_DDOT":0},{"OBJECT_NAME":"STARLINK-32580","OBJECT_ID":"2024-217U","EPOCH":"2026-03-09T12:36:17.560800","MEAN_MOTION":15.30199409,"ECCENTRICITY":6.749e-5,"INCLINATION":53.158,"RA_OF_ASC_NODE":182.0554,"ARG_OF_PERICENTER":76.1585,"MEAN_ANOMALY":283.9491,"EPHEMERIS_TYPE":0,"CLASSIFICATION_TYPE":"U","NORAD_CAT_ID":62075,"ELEMENT_SET_NO":999,"REV_AT_EPOCH":7357,"BSTAR":0.0010673044,"MEAN_MOTION_DOT":0.00031384,"MEAN_MOTION_DDOT":0}]
